{
  "norad_id": 37791,
  "name": "RASAT",
  "history": [
    {
      "epoch": "2026-03-28T21:43:05.284128Z",
      "apogee_km": 682.6978001418747,
      "perigee_km": 651.6924207768807,
      "latitude_deg": 44.40551097998145,
      "longitude_deg": -143.62240771751542,
      "height_km": 663.4879069638163,
      "semi_major_axis_km": 7045.332110459377,
      "eccentricity": 0.00220042,
      "inclination_deg": 98.0544,
      "raan_deg": 180.5446,
      "arg_perigee_deg": 87.1585,
      "mean_anomaly_deg": 47.7847,
      "mean_motion_rev_day": 14.68082821
    },
    {
      "epoch": "2026-03-29T05:31:47.680608Z",
      "apogee_km": 682.6763626592683,
      "perigee_km": 651.7079138990475,
      "latitude_deg": 53.362264792793745,
      "longitude_deg": -99.63253774700446,
      "height_km": 662.8225455626849,
      "semi_major_axis_km": 7045.329138279158,
      "eccentricity": 0.0021978,
      "inclination_deg": 98.0545,
      "raan_deg": 180.8649,
      "arg_perigee_deg": 86.261,
      "mean_anomaly_deg": 327.9042,
      "mean_motion_rev_day": 14.6808375
    },
    {
      "epoch": "2026-03-30T05:55:53.525856Z",
      "apogee_km": 682.6525477537052,
      "perigee_km": 651.7081049928083,
      "latitude_deg": 24.05210455029887,
      "longitude_deg": -98.35071130031542,
      "height_km": 662.1700720423911,
      "semi_major_axis_km": 7045.317326373257,
      "eccentricity": 0.0021961,
      "inclination_deg": 98.0545,
      "raan_deg": 181.8655,
      "arg_perigee_deg": 83.2899,
      "mean_anomaly_deg": 301.2074,
      "mean_motion_rev_day": 14.68087442
    },
    {
      "epoch": "2026-03-30T06:12:18.928224Z",
      "apogee_km": 682.6541422667178,
      "perigee_km": 651.7060369807868,
      "latitude_deg": 80.43988159220551,
      "longitude_deg": -155.54158557396903,
      "height_km": 665.0887140989352,
      "semi_major_axis_km": 7045.3170896237525,
      "eccentricity": 0.00219636,
      "inclination_deg": 98.0545,
      "raan_deg": 181.8769,
      "arg_perigee_deg": 83.2676,
      "mean_anomaly_deg": 1.4712,
      "mean_motion_rev_day": 14.68087516
    }
  ]
}